COMMENT,ORIGINATOR,NORAD_CAT_ID,OBJECT_NAME,OBJECT_TYPE,CLASSIFICATION_TYPE,INTLDES,EPOCH,EPOCH_MICROSECONDS,MEAN_MOTION,ECCENTRICITY,INCLINATION,RA_OF_ASC_NODE,ARG_OF_PERICENTER,MEAN_ANOMALY,EPHEMERIS_TYPE,ELEMENT_SET_NO,REV_AT_EPOCH,BSTAR,MEAN_MOTION_DOT,MEAN_MOTION_DDOT,FILE,TLE_LINE0,TLE_LINE1,TLE_LINE2,OBJECT_ID,OBJECT_NUMBER,SEMIMAJOR_AXIS,PERIOD,APOGEE,PERIGEE,DECAYED
"GENERATED VIA SPACETRACK.ORG API","18 SPCS","48884","SPACEBEE-101","PAYLOAD","U","21059F","2023-09-24 08:31:55","479936","15.38486438","0.000532","97.6047","46.9258","277.7626","82.3014","0","999","12458","0.0013945","0.00053196","0","4015167","0 SPACEBEE-101","1 48884U 21059F   23267.35550324  .00053196  00000-0  13945-2 0  9994","2 48884  97.6047  46.9258 0005320 277.7626  82.3014 15.38486438124586","2021-059F","48884","6828.721","93.598","454.219","446.953","0"
"GENERATED VIA SPACETRACK.ORG API","18 SPCS","48884","SPACEBEE-101","PAYLOAD","U","21059F","2023-09-24 08:31:55","479936","15.38486438","0.000532","97.6047","46.9258","277.7626","82.3014","0","999","12458","0.0013945","0.00053196","0","4015358","0 SPACEBEE-101","1 48884U 21059F   23267.35550324  .00053196  00000-0  13945-2 0  9994","2 48884  97.6047  46.9258 0005320 277.7626  82.3014 15.38486438124586","2021-059F","48884","6828.721","93.598","454.219","446.953","0"
"GENERATED VIA SPACETRACK.ORG API","18 SPCS","48884","SPACEBEE-101","PAYLOAD","U","21059F","2023-09-24 22:34:50","146752","15.38556984","0.0005361","97.6047","47.5331","277.8086","82.255","0","999","12467","0.0014641","0.00056004","0","4015673","0 SPACEBEE-101","1 48884U 21059F   23267.94085818  .00056004  00000-0  14641-2 0  9995","2 48884  97.6047  47.5331 0005361 277.8086  82.2550 15.38556984124679","2021-059F","48884","6828.513","93.594","454.038","446.717","0"
"GENERATED VIA SPACETRACK.ORG API","18 SPCS","48884","SPACEBEE-101","PAYLOAD","U","21059F","2023-09-25 07:56:44","999232","15.38640079","0.0005311","97.6047","47.9372","275.9734","84.0905","0","999","12473","0.0028925","0.00111834","0","4016036","0 SPACEBEE-101","1 48884U 21059F   23268.33107638  .00111834  00000-0  28925-2 0  9997","2 48884  97.6047  47.9372 0005311 275.9734  84.0905 15.38640079124732","2021-059F","48884","6828.267","93.589","453.758","446.505","0"
"GENERATED VIA SPACETRACK.ORG API","18 SPCS","48884","SPACEBEE-101","PAYLOAD","U","21059F","2023-09-25 07:56:44","999232","15.38640079","0.0005311","97.6047","47.9372","275.9734","84.0905","0","999","12473","0.0028925","0.00111834","0","4016340","0 SPACEBEE-101","1 48884U 21059F   23268.33107638  .00111834  00000-0  28925-2 0  9997","2 48884  97.6047  47.9372 0005311 275.9734  84.0905 15.38640079124732","2021-059F","48884","6828.267","93.589","453.758","446.505","0"
"GENERATED VIA SPACETRACK.ORG API","18 SPCS","48884","SPACEBEE-101","PAYLOAD","U","21059F","2023-09-25 21:59:34","882944","15.38710834","0.0005373","97.6044","48.544","275.33","84.7331","0","999","12482","0.0017728","0.0006828","0","4016730","0 SPACEBEE-101","1 48884U 21059F   23268.91637596  .00068280  00000-0  17728-2 0  9997","2 48884  97.6044  48.5440 0005373 275.3300  84.7331 15.38710834124820","2021-059F","48884","6828.057","93.585","453.591","446.254","0"
"GENERATED VIA SPACETRACK.ORG API","18 SPCS","48884","SPACEBEE-101","PAYLOAD","U","21059F","2023-09-25 21:59:34","882944","15.38710834","0.0005373","97.6044","48.544","275.33","84.7331","0","999","12482","0.0017728","0.0006828","0","4016836","0 SPACEBEE-101","1 48884U 21059F   23268.91637596  .00068280  00000-0  17728-2 0  9997","2 48884  97.6044  48.5440 0005373 275.3300  84.7331 15.38710834124820","2021-059F","48884","6828.057","93.585","453.591","446.254","0"
"GENERATED VIA SPACETRACK.ORG API","18 SPCS","48884","SPACEBEE-101","PAYLOAD","U","21059F","2023-09-26 08:55:05","140992","15.38770195","0.0005428","97.6045","49.0157","273.1171","86.9453","0","999","12489","0.0015328","0.00059068","0","4017272","0 SPACEBEE-101","1 48884U 21059F   23269.37158728  .00059068  00000-0  15328-2 0  9991","2 48884  97.6045  49.0157 0005428 273.1171  86.9453 15.38770195124897","2021-059F","48884","6827.882","93.581","453.453","446.041","0"
"GENERATED VIA SPACETRACK.ORG API","18 SPCS","48884","SPACEBEE-101","PAYLOAD","U","21059F","2023-09-26 22:57:49","958208","15.38868403","0.0005449","97.6046","49.623","272.0272","88.0349","0","999","12498","0.0019174","0.00074295","0","4017624","0 SPACEBEE-101","1 48884U 21059F   23269.95682822  .00074295  00000-0  19174-2 0  9994","2 48884  97.6046  49.6230 0005449 272.0272  88.0349 15.38868403124986","2021-059F","48884","6827.591","93.575","453.177","445.736","0"
"GENERATED VIA SPACETRACK.ORG API","18 SPCS","48884","SPACEBEE-101","PAYLOAD","U","21059F","2023-09-27 08:19:38","402400","15.38916569","0.0005409","97.6048","50.0275","270.3967","89.6658","0","999","12504","0.0016561","0.00064174","0","4018006","0 SPACEBEE-101","1 48884U 21059F   23270.34697225  .00064174  00000-0  16561-2 0  9994","2 48884  97.6048  50.0275 0005409 270.3967  89.6658 15.38916569125046","2021-059F","48884","6827.449","93.572","453.007","445.621","0"
"GENERATED VIA SPACETRACK.ORG API","18 SPCS","48884","SPACEBEE-101","PAYLOAD","U","21059F","2023-09-27 08:19:38","402400","15.38916569","0.0005409","97.6048","50.0275","270.3967","89.6658","0","999","12504","0.0016561","0.00064174","0","4018203","0 SPACEBEE-101","1 48884U 21059F   23270.34697225  .00064174  00000-0  16561-2 0  9994","2 48884  97.6048  50.0275 0005409 270.3967  89.6658 15.38916569125046","2021-059F","48884","6827.449","93.572","453.007","445.621","0"
"GENERATED VIA SPACETRACK.ORG API","18 SPCS","48884","SPACEBEE-101","PAYLOAD","U","21059F","2023-09-28 09:17:42","376128","15.39041141","0.000535","97.6055","51.1068","267.7423","92.3209","0","999","12520","0.0012877","0.00049989","0","4018900","0 SPACEBEE-101","1 48884U 21059F   23271.38729602  .00049989  00000-0  12877-2 0  9997","2 48884  97.6055  51.1068 0005350 267.7423  92.3209 15.39041141125205","2021-059F","48884","6827.080","93.565","452.598","445.293","0"
"GENERATED VIA SPACETRACK.ORG API","18 SPCS","48884","SPACEBEE-101","PAYLOAD","U","21059F","2023-09-28 09:17:42","376128","15.39041141","0.000535","97.6055","51.1068","267.7423","92.3209","0","999","12520","0.0012877","0.00049989","0","4019158","0 SPACEBEE-101","1 48884U 21059F   23271.38729602  .00049989  00000-0  12877-2 0  9997","2 48884  97.6055  51.1068 0005350 267.7423  92.3209 15.39041141125205","2021-059F","48884","6827.080","93.565","452.598","445.293","0"
"GENERATED VIA SPACETRACK.ORG API","18 SPCS","48884","SPACEBEE-101","PAYLOAD","U","21059F","2023-09-28 21:46:41","680704","15.39097666","0.0005382","97.6056","51.6471","267.7335","92.3294","0","999","12528","0.0013803","0.00053716","0","4019377","0 SPACEBEE-101","1 48884U 21059F   23271.90742686  .00053716  00000-0  13803-2 0  9995","2 48884  97.6056  51.6471 0005382 267.7335  92.3294 15.39097666125281","2021-059F","48884","6826.913","93.561","452.453","445.104","0"
"GENERATED VIA SPACETRACK.ORG API","18 SPCS","48884","SPACEBEE-101","PAYLOAD","U","21059F","2023-09-29 08:42:02","112480","15.39152392","0.0005448","97.606","52.1187","265.1965","94.8658","0","999","12535","0.0014091","0.00054946","0","4019745","0 SPACEBEE-101","1 48884U 21059F   23272.36252445  .00054946  00000-0  14091-2 0  9991","2 48884  97.6060  52.1187 0005448 265.1965  94.8658 15.39152392125357","2021-059F","48884","6826.751","93.558","452.336","444.897","0"
"GENERATED VIA SPACETRACK.ORG API","18 SPCS","48884","SPACEBEE-101","PAYLOAD","U","21059F","2023-09-29 08:42:02","112480","15.39152392","0.0005448","97.606","52.1187","265.1965","94.8658","0","999","12535","0.0014091","0.00054946","0","4020020","0 SPACEBEE-101","1 48884U 21059F   23272.36252445  .00054946  00000-0  14091-2 0  9991","2 48884  97.6060  52.1187 0005448 265.1965  94.8658 15.39152392125357","2021-059F","48884","6826.751","93.558","452.336","444.897","0"
"GENERATED VIA SPACETRACK.ORG API","18 SPCS","48884","SPACEBEE-101","PAYLOAD","U","21059F","2023-09-29 22:44:34","626336","15.39236475","0.0005449","97.6063","52.7263","264.0896","95.9728","0","999","12544","0.001576","0.00061687","0","4020310","0 SPACEBEE-101","1 48884U 21059F   23272.94762299  .00061687  00000-0  15760-2 0  9992","2 48884  97.6063  52.7263 0005449 264.0896  95.9728 15.39236475125448","2021-059F","48884","6826.503","93.553","452.088","444.648","0"
"GENERATED VIA SPACETRACK.ORG API","18 SPCS","48884","SPACEBEE-101","PAYLOAD","U","21059F","2023-09-29 22:44:34","626336","15.39236475","0.0005449","97.6063","52.7263","264.0896","95.9728","0","999","12544","0.001576","0.00061687","0","4020886","0 SPACEBEE-101","1 48884U 21059F   23272.94762299  .00061687  00000-0  15760-2 0  9992","2 48884  97.6063  52.7263 0005449 264.0896  95.9728 15.39236475125448","2021-059F","48884","6826.503","93.553","452.088","444.648","0"
"GENERATED VIA SPACETRACK.ORG API","18 SPCS","48884","SPACEBEE-101","PAYLOAD","U","21059F","2023-09-30 22:08:43","179072","15.39369111","0.0005414","97.607","53.739","261.8921","98.171","0","999","12559","0.0017008","0.00066913","0","4021332","0 SPACEBEE-101","1 48884U 21059F   23273.92272198  .00066913  00000-0  17008-2 0  9999","2 48884  97.6070  53.7390 0005414 261.8921  98.1710 15.39369111125590","2021-059F","48884","6826.111","93.545","451.671","444.280","0"
"GENERATED VIA SPACETRACK.ORG API","18 SPCS","48884","SPACEBEE-101","PAYLOAD","U","21059F","2023-10-01 09:03:56","511360","15.3944142","0.0005386","97.607","54.2109","259.2316","100.8323","0","999","12566","0.001831","0.00072262","0","4021853","0 SPACEBEE-101","1 48884U 21059F   23274.37773740  .00072262  00000-0  18310-2 0  9999","2 48884  97.6070  54.2109 0005386 259.2316 100.8323 15.39441420125664","2021-059F","48884","6825.897","93.540","451.438","444.086","0"
